NORAD_CAT_ID,OBJECT_NAME,OBJECT_TYPE,EPOCH,MEAN_MOTION,ECCENTRICITY,INCLINATION,RA_OF_ASC_NODE,ARG_OF_PERICENTER,MEAN_ANOMALY,BSTAR,MEAN_MOTION_DOT,MEAN_MOTION_DDOT,TLE_LINE0,TLE_LINE1,TLE_LINE2,SEMIMAJOR_AXIS,PERIOD,APOGEE,PERIGEE,DECAYED
52674.0,STARLINK-3936,PAYLOAD,2022-07-24 22:00:00,15.08822499,0.0001916,53.2217,336.7569,37.9907,3.0694,-0.0011397,-0.00018372,0.0,0 STARLINK-3936,1 52674U 22053U   22205.91667824 -.00018372  00000-0 -11397-2 0  9996,2 52674  53.2217 336.7569 0001916  37.9907   3.0694 15.08822499  1301,6917.934,95.439,541.124,538.4730000000002,0.0
52674.0,STARLINK-3936,PAYLOAD,2022-07-25 14:00:01,15.08827991,0.0001878,53.2222,333.7644,41.1567,23.0268,-0.0012974,-0.0002086999999999,0.0,0 STARLINK-3936,1 52674U 22053U   22206.58334491 -.00020870  00000-0 -12974-2 0  9999,2 52674  53.2222 333.7644 0001878  41.1567  23.0268 15.08827991  1305,6917.917,95.438,541.081,538.4830000000002,0.0
52674.0,STARLINK-3936,PAYLOAD,2022-07-25 22:00:00,15.08828345,0.000192,53.2221,332.2683,38.1253,37.6249,-0.00023016,-3.948e-05,0.0,0 STARLINK-3936,1 52674U 22053U   22206.91667824 -.00003948  00000-0 -23016-3 0  9992,2 52674  53.2221 332.2683 0001920  38.1253  37.6249 15.08828345 10929,6917.916,95.438,541.109,538.453,0.0
52674.0,STARLINK-3936,PAYLOAD,2022-07-26 14:00:01,15.08841807,0.0001876999999999,53.2224,329.276,41.367,57.5406,-0.0012552,-0.0002020999999999,0.0,0 STARLINK-3936,1 52674U 22053U   22207.58334491 -.00020210  00000-0 -12552-2 0  9990,2 52674  53.2224 329.2760 0001877  41.3670  57.5406 15.08841807  1300,6917.875,95.437,541.038,538.441,0.0
52674.0,STARLINK-3936,PAYLOAD,2022-07-26 22:00:00,15.08847061,0.0001899999999999,53.2222,327.7798,39.0109,71.4824,-0.00069258,-0.00011296,0.0,0 STARLINK-3936,1 52674U 22053U   22207.91667824 -.00011296  00000-0 -69258-3 0  9996,2 52674  53.2222 327.7798 0001900  39.0109  71.4824 15.08847061  1307,6917.859,95.437,541.038,538.409,0.0
52674.0,STARLINK-3936,PAYLOAD,2022-07-27 14:00:01,15.08853705,0.0001863,53.2223,324.7878,41.9005,91.7896,-0.0010667,-0.00017231,0.0,0 STARLINK-3936,1 52674U 22053U   22208.58334491 -.00017231  00000-0 -10667-2 0  9995,2 52674  53.2223 324.7878 0001863  41.9005  91.7896 15.08853705 11171,6917.8380000000025,95.437,540.992,538.415,0.0
52674.0,STARLINK-3936,PAYLOAD,2022-07-27 22:00:00,15.08863306,0.0001871,53.2219,323.2913,40.2089,105.0821,-0.0011338,-0.00018299,0.0,0 STARLINK-3936,1 52674U 22053U   22208.91667824 -.00018299  00000-0 -11338-2 0  9992,2 52674  53.2219 323.2913 0001871  40.2089 105.0821 15.08863306  1302,6917.809,95.436,540.9680000000002,538.38,0.0
52674.0,STARLINK-3936,PAYLOAD,2022-07-28 06:00:00,15.08841162,0.000169,53.222,321.7939,46.2239,110.6847,0.0022716,0.00036051,0.0,0 STARLINK-3936,1 52674U 22053U   22209.25001157  .00036051  00000-0  22716-2 0  9997,2 52674  53.2220 321.7939 0001690  46.2239 110.6847 15.08841162 11270,6917.877,95.437,540.911,538.573,0.0
52674.0,STARLINK-3936,PAYLOAD,2022-07-28 14:00:01,15.08872881,0.0001843,53.2219,320.2995,41.8399,126.6788,-0.0029411,-0.00046834,0.0,0 STARLINK-3936,1 52674U 22053U   22209.58334491 -.00046834  00000-0 -29411-2 0  9994,2 52674  53.2219 320.2995 0001843  41.8399 126.6788 15.08872881  1308,6917.78,95.435,540.92,538.37,0.0
52674.0,STARLINK-3936,PAYLOAD,2022-07-28 22:00:00,15.08855098,0.0001781999999999,53.2215,318.8029,38.2651,141.8687,-0.0020566,-0.00032884,0.0,0 STARLINK-3936,1 52674U 22053U   22209.91667824 -.00032884  00000-0 -20566-2 0  9992,2 52674  53.2215 318.8029 0001782  38.2651 141.8687 15.08855098 11374,6917.834,95.437,540.932,538.466,0.0
52674.0,STARLINK-3936,PAYLOAD,2022-07-29 14:00:01,15.08841209,0.0001838,53.2214,315.8113,40.2296,163.0969,-0.0003494,-5.845e-05,0.0,0 STARLINK-3936,1 52674U 22053U   22210.58334491 -.00005845  00000-0 -34940-3 0  9997,2 52674  53.2214 315.8113 0001838  40.2296 163.0969 15.08841209 11473,6917.877,95.437,541.013,538.47,0.0
52674.0,STARLINK-3936,PAYLOAD,2022-07-29 22:00:00,15.08872715,0.0001839,53.2212,314.3145,39.9646,174.9491,-0.0046635,-0.00073815,0.0,0 STARLINK-3936,1 52674U 22053U   22210.91667824 -.00073815  00000-0 -46635-2 0  9998,2 52674  53.2212 314.3145 0001839  39.9646 174.9491 15.08872715  1303,6917.78,95.435,540.918,538.373,0.0
52674.0,STARLINK-3936,PAYLOAD,2022-07-30 14:00:01,15.08820139,0.0001999,53.2212,311.3229,42.7404,195.3542,1.0273e-05,-1.25e-06,0.0,0 STARLINK-3936,1 52674U 22053U   22211.58334491 -.00000125  00000-0  10273-4 0  9997,2 52674  53.2212 311.3229 0001999  42.7404 195.3542 15.08820139  1301,6917.941,95.439,541.189,538.423,0.0
52674.0,STARLINK-3936,PAYLOAD,2022-07-30 20:00:01,15.08828903,0.0002006999999999,53.221,310.2006,40.4279,116.3416,-2.2183e-05,-6.41e-06,0.0,0 STARLINK-3936,1 52674U 22053U   22211.83334491 -.00000641  00000-0 -22183-4 0  9992,2 52674  53.2210 310.2006 0002007  40.4279 116.3416 15.08828903 11666,6917.9140000000025,95.438,541.168,538.391,0.0
52674.0,STARLINK-3936,PAYLOAD,2022-07-30 22:00:00,15.08843981,0.0001945,53.2211,309.8261,41.6596,208.0009,-0.0021454,-0.00034274,0.0,0 STARLINK-3936,1 52674U 22053U   22211.91667824 -.00034274  00000-0 -21454-2 0  9997,2 52674  53.2211 309.8261 0001945  41.6596 208.0009 15.08843981  1309,6917.868,95.437,541.0790000000002,538.388,0.0
52674.0,STARLINK-3936,PAYLOAD,2022-07-31 14:00:01,15.08829158,0.0002089,53.2212,306.8345,42.6692,230.166,0.00035116,5.303e-05,0.0,0 STARLINK-3936,1 52674U 22053U   22212.58334491  .00005303  00000-0  35116-3 0  9992,2 52674  53.2212 306.8345 0002089  42.6692 230.1660 15.08829158  1307,6917.9140000000025,95.438,541.224,538.3330000000002,0.0
52674.0,STARLINK-3936,PAYLOAD,2022-07-31 22:00:00,15.08856541,0.0002011,53.2212,305.3375,42.0288,242.3871,-0.0022274,-0.00035579,0.0,0 STARLINK-3936,1 52674U 22053U   22212.91667824 -.00035579  00000-0 -22274-2 0  9998,2 52674  53.2212 305.3375 0002011  42.0288 242.3871 15.08856541  1309,6917.83,95.437,541.086,538.304,0.0
52674.0,STARLINK-3936,PAYLOAD,2022-08-01 04:00:00,15.08825944,0.0001915,53.2213,304.2143,45.9884,157.1353,0.0024849,0.00039466,0.0,0 STARLINK-3936,1 52674U 22053U   22213.16667824  .00039466  00000-0  24849-2 0  9993,2 52674  53.2213 304.2143 0001915  45.9884 157.1353 15.08825944 11860,6917.9230000000025,95.438,541.113,538.464,0.0
52674.0,STARLINK-3936,PAYLOAD,2022-08-01 14:00:01,15.08841066,0.0002154,53.2214,302.3459,42.8302,264.7923,0.00066269,0.00010275,0.0,0 STARLINK-3936,1 52674U 22053U   22213.58334491  .00010275  00000-0  66269-3 0  9990,2 52674  53.2214 302.3459 0002154  42.8302 264.7923 15.08841066  1306,6917.877,95.437,541.232,538.252,0.0
52674.0,STARLINK-3936,PAYLOAD,2022-08-01 22:00:00,15.08869899,0.000205,53.2213,300.8487,42.6707,276.5503,-0.0021269,-0.00034007,0.0,0 STARLINK-3936,1 52674U 22053U   22213.91667824 -.00034007  00000-0 -21269-2 0  9997,2 52674  53.2213 300.8487 0002050  42.6707 276.5503 15.08869899 11974,6917.7890000000025,95.436,541.072,538.236,0.0
52674.0,STARLINK-3936,PAYLOAD,2022-08-02 14:00:01,15.08824294,0.0002094,53.2214,297.8572,40.7494,301.7061,0.00083515,0.00013023,0.0,0 STARLINK-3936,1 52674U 22053U   22214.58334491  .00013023  00000-0  83515-3 0  9998,2 52674  53.2214 297.8572 0002094  40.7494 301.7061 15.08824294 12077,6917.928000000001,95.439,541.242,538.345,0.0
52674.0,STARLINK-3936,PAYLOAD,2022-08-03 14:00:01,15.08833402,0.0002078,53.2212,293.3684,41.0757,336.1586,0.0010972999999999,0.00017216,0.0,0 STARLINK-3936,1 52674U 22053U   22215.58334491  .00017216  00000-0  10973-2 0  9994,2 52674  53.2212 293.3684 0002078  41.0757 336.1586 15.08833402  1307,6917.901,95.438,541.203,538.328,0.0
52674.0,STARLINK-3936,PAYLOAD,2022-08-03 22:00:01,15.08863121,0.0001939,53.2209,291.8707,41.9258,346.9669,-0.0028463,-0.00045332,0.0,0 STARLINK-3936,1 52674U 22053U   22215.91668981 -.00045332  00000-0 -28463-2 0  9990,2 52674  53.2209 291.8707 0001939  41.9258 346.9669 15.08863121  1304,6917.81,95.436,541.016,538.3330000000002,0.0
52674.0,STARLINK-3936,PAYLOAD,2022-08-04 12:00:00,15.08841769,0.0002017,53.2208,289.2534,41.1858,277.9451,-0.00041829,-6.94e-05,0.0,0 STARLINK-3936,1 52674U 22053U   22216.50001157 -.00006940  00000-0 -41829-3 0  9996,2 52674  53.2208 289.2534 0002017  41.1858 277.9451 15.08841769 12362,6917.875,95.437,541.135,538.345,0.0
52674.0,STARLINK-3936,PAYLOAD,2022-08-04 14:00:01,15.08828245,0.0002031,53.2208,288.8796,40.4282,11.6052,0.0014968,0.00023606,0.0,0 STARLINK-3936,1 52674U 22053U   22216.58334491  .00023606  00000-0  14968-2 0  9993,2 52674  53.2208 288.8796 0002031  40.4282  11.6052 15.08828245  1302,6917.916,95.438,541.186,538.376,0.0
52674.0,STARLINK-3936,PAYLOAD,2022-08-04 22:00:00,15.08859683,0.0001869,53.2206,287.3819,41.4277,22.197,-0.0040015,-0.00063446,0.0,0 STARLINK-3936,1 52674U 22053U   22216.91667824 -.00063446  00000-0 -40015-2 0  9999,2 52674  53.2206 287.3819 0001869  41.4277  22.1970 15.08859683  1309,6917.82,95.436,540.9780000000002,538.3919999999998,0.0
52674.0,STARLINK-3936,PAYLOAD,2022-08-05 14:00:01,15.08806419,0.0001982,53.2204,284.3908,38.675,48.1853,0.0020033,0.00031709,0.0,0 STARLINK-3936,1 52674U 22053U   22217.58335648  .00031709  00000-0  20033-2 0  9992,2 52674  53.2204 284.3908 0001982  38.6750  48.1853 15.08806419  1300,6917.983,95.44,541.219,538.477,0.0
52674.0,STARLINK-3936,PAYLOAD,2022-08-05 22:00:00,15.08830543,0.0001855,53.2203,282.8931,41.0015,57.3673,-0.00063425,-0.00010366,0.0,0 STARLINK-3936,1 52674U 22053U   22217.91667824 -.00010366  00000-0 -63425-3 0  9994,2 52674  53.2203 282.8931 0001855  41.0015  57.3673 15.08830543 12588,6917.909000000002,95.438,541.058,538.491,0.0
52674.0,STARLINK-3936,PAYLOAD,2022-08-06 11:52:27,15.08837841,0.0001934,53.2215,280.298,42.2798,317.8343,-1.6654e-05,-5.53e-06,0.0,0 STARLINK-3936,1 52674U 22053U   22218.49476270 -.00000553  00000-0 -16654-4 0  9991,2 52674  53.2215 280.2980 0001934  42.2798 317.8343 15.08837841 12661,6917.887,95.438,541.09,538.414,0.0
